CAS-2T & KS-1Q          
1 41847U 16066G   20143.11475718  .00000023  00000-0  14828-4 0  9999
2 41847  98.6560 193.3577 0364745 307.5438  49.3122 14.38063911185634
NAYIF-1 (EO-88)         
1 42017U 17008BX  20143.13134510  .00001203  00000-0  48938-4 0  9990
2 42017  97.3610 211.0763 0007742  63.7270 296.4763 15.26431197181531
MAX VALIER SAT          
1 42778U 17036P   20143.12033842  .00000783  00000-0  36599-4 0  9992
2 42778  97.3068 197.4818 0013967 112.4510 247.8208 15.22575954161724
RADFXSAT (FOX-1B)       
1 43017U 17073E   20142.73240864  .00000287  00000-0  27428-4 0  9990
2 43017  97.7243  56.0003 0257990 137.1816 224.9811 14.78907917135214
FOX-1D (AO-92)          
1 43137U 18004AC  20142.82842986  .00000815  00000-0  36485-4 0  9991
2 43137  97.4467 214.1682 0010216 141.4071 218.7898 15.24076026130997
DIWATA-2B               
1 43678U 18084H   20143.84890384  .00000226  00000-0  28205-4 0  9994
2 43678  97.8798 262.2585 0008534 261.6658  98.3580 14.91631041 85200
ES'HAIL 2               
1 43700U 18090A   20143.04355090  .00000155  00000-0  00000+0 0  9998
2 43700   0.0142 295.2319 0000941 122.9925 223.4277  1.00269134  5680
FOX-1CLIFF (AO-95)      
1 43770U 18099N   20143.13736979  .00000496  00000-0  50627-4 0  9996
2 43770  97.7065 214.9747 0013043 286.2399  73.7387 14.94972929 79985
ITASAT 1                
1 43786U 18099AE  20143.27410862  .00000532  00000-0  53404-4 0  9995
2 43786  97.7081 215.5097 0013648 278.6388  81.3286 14.95314619 80026
JY1SAT (JO-97)          
1 43803U 18099AX  20143.09097751  .00000526  00000-0  52628-4 0  9993
2 43803  97.7043 215.1548 0013477 280.1450  79.8250 14.95490845 79992
PSAT2 (NO-104)          
1 44354U 19036R   20143.30006833  .00006417  00000-0  91326-4 0  9995
2 44354  28.5282 192.3200 0365644  31.8442 330.3718 15.03179901 49875
BRICSAT2 (NO-103)       
1 44355U 19036S   20142.47219270  .00011212  00000-0  15541-3 0  9997
2 44355  28.5283 190.4667 0345785  34.8776 327.3970 15.08220140 49828
JAISAT-1                
1 44419U 19038F   20142.83225098  .00000628  00000-0  39458-4 0  9998
2 44419  97.5367 104.7444 0020415 219.2209 140.7543 15.12744511 48571
DUCHIFAT-3              
1 44854U 19089C   20143.38396022  .00000253  00000-0  26855-4 0  9995
2 44854  36.9662 252.4140 0008059 222.3340 137.6785 14.99052771 24384
RS-44 & BREEZE-KM R/B   
1 44909U 19096E   20143.24516570  .00000009  00000-0  00000-0 0  9990
2 44909  82.5230  12.7317 0216314 287.9654  69.7975 12.79707163 18833
ORBITAL FACTORY 2 (OF-2)
1 45113U 19071C   20142.95744466  .00001309  00000-0  51655-4 0  9995
2 45113  51.6431 131.5338 0012871 324.3924  35.6198 15.33256502 17064
HUSKYSAT-1              
1 45119U 19071J   20143.13517704  .00000904  00000-0  39013-4 0  9999
2 45119  51.6430 130.4711 0012128 321.3440  38.6672 15.33483114 17080
